{"type": "FeatureCollection", "features": [ {"type": "Feature", "properties": {"norad_id": 38953, "name": "BEIDOU-2 G6 (C02)", "group": "beidou", "lat": -1.5024419399531277, "lon": -82.39879725115865, "alt_km": 35785.268667104756, "timestamp": "2025-12-09T07:41:33.472944+00:00", "meta": {"OBJECT_NAME": "BEIDOU-2 G6 (C02)", "OBJECT_ID": "2012-059A", "EPOCH": "2025-12-08T20:51:04.199040", "MEAN_MOTION": 1.00269836, "ECCENTRICITY": 0.00074931, "INCLINATION": 3.9388, "RA_OF_ASC_NODE": 75.5346, "ARG_OF_PERICENTER": 289.1403, "MEAN_ANOMALY": 109.993, "EPHEMERIS_TYPE": 0, "CLASSIFICATION_TYPE": "U", "NORAD_CAT_ID": 38953, "ELEMENT_SET_NO": 999, "REV_AT_EPOCH": 4800, "BSTAR": 0, "MEAN_MOTION_DOT": -1.74e-06, "MEAN_MOTION_DDOT": 0}, "tle": {"line1": "1 38953U 12059A   25342.86879860 -.00000174  00000+0  00000+0 0  9994", "line2": "2 38953   3.9388  75.5346 0007493 289.1403 109.9930  1.00269836 48009"}}, "geometry": {"type": "Point", "coordinates": [-82.39879725115865, -1.5024419399531277]}}, {"type": "Feature", "properties": {"norad_id": 40549, "name": "BEIDOU-3S IGSO-1S (C31)", "group": "beidou", "lat": -7.626450250388236, "lon": -68.83413180943053, "alt_km": 35923.385099275154, "timestamp": "2025-12-09T07:41:33.472956+00:00", "meta": {"OBJECT_NAME": "BEIDOU-3S IGSO-1S (C31)", "OBJECT_ID": "2015-019A", "EPOCH": "2025-12-07T20:38:38.671584", "MEAN_MOTION": 1.00293516, "ECCENTRICITY": 0.00368211, "INCLINATION": 49.562, "RA_OF_ASC_NODE": 297.7693, "ARG_OF_PERICENTER": 193.8977, "MEAN_ANOMALY": 348.5751, "EPHEMERIS_TYPE": 0, "CLASSIFICATION_TYPE": "U", "NORAD_CAT_ID": 40549, "ELEMENT_SET_NO": 999, "REV_AT_EPOCH": 3915, "BSTAR": 0, "MEAN_MOTION_DOT": -1.86e-06, "MEAN_MOTION_DDOT": 0}, "tle": {"line1": "1 40549U 15019A   25341.86016981 -.00000186  00000+0  00000+0 0  9996", "line2": "2 40549  49.5620 297.7693 0036821 193.8977 348.5751  1.00293516 39155"}}, "geometry": {"type": "Point", "coordinates": [-68.83413180943053, -7.626450250388236]}}, {"type": "Feature", "properties": {"norad_id": 40748, "name": "BEIDOU-3S M2S (C58)", "group": "beidou", "lat": 40.364688197766895, "lon": -14.980419165935164, "alt_km": 21550.9858851531, "timestamp": "2025-12-09T07:41:33.472968+00:00", "meta": {"OBJECT_NAME": "BEIDOU-3S M2S (C58)", "OBJECT_ID": "2015-037A", "EPOCH": "2025-12-08T16:56:06.142560", "MEAN_MOTION": 1.86229071, "ECCENTRICITY": 0.00122828, "INCLINATION": 55.0424, "RA_OF_ASC_NODE": 308.6021, "ARG_OF_PERICENTER": 268.3899, "MEAN_ANOMALY": 91.4573, "EPHEMERIS_TYPE": 0, "CLASSIFICATION_TYPE": "U", "NORAD_CAT_ID": 40748, "ELEMENT_SET_NO": 999, "REV_AT_EPOCH": 7057, "BSTAR": 0, "MEAN_MOTION_DOT": -7.3e-07, "MEAN_MOTION_DDOT": 0}, "tle": {"line1": "1 40748U 15037A   25342.70562665 -.00000073  00000+0  00000+0 0  9991", "line2": "2 40748  55.0424 308.6021 0012282 268.3899  91.4573  1.86229071 70579"}}, "geometry": {"type": "Point", "coordinates": [-14.980419165935164, 40.364688197766895]}}, {"type": "Feature", "properties": {"norad_id": 40749, "name": "BEIDOU-3S M1S (C57)", "group": "beidou", "lat": -53.17360563731545, "lon": -162.42788813793695, "alt_km": 21533.63789192802, "timestamp": "2025-12-09T07:41:33.472993+00:00", "meta": {"OBJECT_NAME": "BEIDOU-3S M1S (C57)", "OBJECT_ID": "2015-037B", "EPOCH": "2025-12-08T09:35:11.371488", "MEAN_MOTION": 1.86253811, "ECCENTRICITY": 0.00035729, "INCLINATION": 55.0394, "RA_OF_ASC_NODE": 308.6023, "ARG_OF_PERICENTER": 359.9118, "MEAN_ANOMALY": 0.0754, "EPHEMERIS_TYPE": 0, "CLASSIFICATION_TYPE": "U", "NORAD_CAT_ID": 40749, "ELEMENT_SET_NO": 999, "REV_AT_EPOCH": 7057, "BSTAR": 0, "MEAN_MOTION_DOT": -7.3e-07, "MEAN_MOTION_DDOT": 0}, "tle": {"line1": "1 40749U 15037B   25342.39943717 -.00000073  00000+0  00000+0 0  9998", "line2": "2 40749  55.0394 308.6023 0003572 359.9118   0.0754  1.86253811 70577"}}, "geometry": {"type": "Point", "coordinates": [-162.42788813793695, -53.17360563731545]}}, {"type": "Feature", "properties": {"norad_id": 40938, "name": "BEIDOU-3S IGSO-2S (C56)", "group": "beidou", "lat": 21.244416593577764, "lon": -79.61058082328567, "alt_km": 36026.46339438538, "timestamp": "2025-12-09T07:41:33.473020+00:00", "meta": {"OBJECT_NAME": "BEIDOU-3S IGSO-2S (C56)", "OBJECT_ID": "2015-053A", "EPOCH": "2025-12-07T17:59:38.817312", "MEAN_MOTION": 1.00270783, "ECCENTRICITY": 0.0060962, "INCLINATION": 49.5194, "RA_OF_ASC_NODE": 261.0646, "ARG_OF_PERICENTER": 188.6217, "MEAN_ANOMALY": 353.0712, "EPHEMERIS_TYPE": 0, "CLASSIFICATION_TYPE": "U", "NORAD_CAT_ID": 40938, "ELEMENT_SET_NO": 999, "REV_AT_EPOCH": 3743, "BSTAR": 0, "MEAN_MOTION_DOT": -1.42e-06, "MEAN_MOTION_DDOT": 0}, "tle": {"line1": "1 40938U 15053A   25341.74975483 -.00000142  00000+0  00000+0 0  9996", "line2": "2 40938  49.5194 261.0646 0060962 188.6217 353.0712  1.00270783 37435"}}, "geometry": {"type": "Point", "coordinates": [-79.61058082328567, 21.244416593577764]}}, {"type": "Feature", "properties": {"norad_id": 41434, "name": "BEIDOU-2 IGSO-6 (C13)", "group": "beidou", "lat": -52.67031434338488, "lon": -90.75891697708872, "alt_km": 35546.52193372407, "timestamp": "2025-12-09T07:41:33.473036+00:00", "meta": {"OBJECT_NAME": "BEIDOU-2 IGSO-6 (C13)", "OBJECT_ID": "2016-021A", "EPOCH": "2025-12-03T15:53:57.382080", "MEAN_MOTION": 1.00293531, "ECCENTRICITY": 0.00596341, "INCLINATION": 59.9536, "RA_OF_ASC_NODE": 39.991, "ARG_OF_PERICENTER": 228.541, "MEAN_ANOMALY": 135.1173, "EPHEMERIS_TYPE": 0, "CLASSIFICATION_TYPE": "U", "NORAD_CAT_ID": 41434, "ELEMENT_SET_NO": 999, "REV_AT_EPOCH": 3552, "BSTAR": 0, "MEAN_MOTION_DOT": -1.61e-06, "MEAN_MOTION_DDOT": 0}, "tle": {"line1": "1 41434U 16021A   25337.66246970 -.00000161  00000+0  00000+0 0  9993", "line2": "2 41434  59.9536  39.9910 0059634 228.5410 135.1173  1.00293531 35525"}}, "geometry": {"type": "Point", "coordinates": [-90.75891697708872, -52.67031434338488]}}, {"type": "Feature", "properties": {"norad_id": 41586, "name": "BEIDOU-2 G7 (C03)", "group": "beidou", "lat": -1.4704833776294985, "lon": -55.88669886990289, "alt_km": 35797.8505349225, "timestamp": "2025-12-09T07:41:33.473050+00:00", "meta": {"OBJECT_NAME": "BEIDOU-2 G7 (C03)", "OBJECT_ID": "2016-037A", "EPOCH": "2025-12-08T22:41:26.771136", "MEAN_MOTION": 1.00268801, "ECCENTRICITY": 0.00043333, "INCLINATION": 1.7473, "RA_OF_ASC_NODE": 67.6881, "ARG_OF_PERICENTER": 1.9684, "MEAN_ANOMALY": 99.1172, "EPHEMERIS_TYPE": 0, "CLASSIFICATION_TYPE": "U", "NORAD_CAT_ID": 41586, "ELEMENT_SET_NO": 999, "REV_AT_EPOCH": 498, "BSTAR": 0, "MEAN_MOTION_DOT": -3.51e-06, "MEAN_MOTION_DDOT": 0}, "tle": {"line1": "1 41586U 16037A   25342.94544874 -.00000351  00000+0  00000+0 0  9990", "line2": "2 41586   1.7473  67.6881 0004333   1.9684  99.1172  1.00268801  4981"}}, "geometry": {"type": "Point", "coordinates": [-55.88669886990289, -1.4704833776294985]}}, {"type": "Feature", "properties": {"norad_id": 43001, "name": "BEIDOU-3 M1 (C19)", "group": "beidou", "lat": -0.53642129325071, "lon": -110.28917706970317, "alt_km": 21542.210179389265, "timestamp": "2025-12-09T07:41:33.473061+00:00", "meta": {"OBJECT_NAME": "BEIDOU-3 M1 (C19)", "OBJECT_ID": "2017-069A", "EPOCH": "2025-12-07T23:26:52.374048", "MEAN_MOTION": 1.86230858, "ECCENTRICITY": 0.00090173, "INCLINATION": 56.5233, "RA_OF_ASC_NODE": 69.3913, "ARG_OF_PERICENTER": 303.8137, "MEAN_ANOMALY": 56.1206, "EPHEMERIS_TYPE": 0, "CLASSIFICATION_TYPE": "U", "NORAD_CAT_ID": 43001, "ELEMENT_SET_NO": 999, "REV_AT_EPOCH": 5504, "BSTAR": 0, "MEAN_MOTION_DOT": -4.4e-07, "MEAN_MOTION_DDOT": 0}, "tle": {"line1": "1 43001U 17069A   25341.97699507 -.00000044  00000+0  00000+0 0  9995", "line2": "2 43001  56.5233  69.3913 0009017 303.8137  56.1206  1.86230858 55042"}}, "geometry": {"type": "Point", "coordinates": [-110.28917706970317, -0.53642129325071]}}, {"type": "Feature", "properties": {"norad_id": 43002, "name": "BEIDOU-3 M2 (C20)", "group": "beidou", "lat": -33.962800391927864, "lon": -84.17893096035628, "alt_km": 21538.103899980262, "timestamp": "2025-12-09T07:41:33.473076+00:00", "meta": {"OBJECT_NAME": "BEIDOU-3 M2 (C20)", "OBJECT_ID": "2017-069B", "EPOCH": "2025-12-08T10:51:18.927360", "MEAN_MOTION": 1.86230678, "ECCENTRICITY": 0.00063835, "INCLINATION": 56.5226, "RA_OF_ASC_NODE": 69.4117, "ARG_OF_PERICENTER": 330.8717, "MEAN_ANOMALY": 29.1139, "EPHEMERIS_TYPE": 0, "CLASSIFICATION_TYPE": "U", "NORAD_CAT_ID": 43002, "ELEMENT_SET_NO": 999, "REV_AT_EPOCH": 5504, "BSTAR": 0, "MEAN_MOTION_DOT": -4.4e-07, "MEAN_MOTION_DDOT": 0}, "tle": {"line1": "1 43002U 17069B   25342.45230240 -.00000044  00000+0  00000+0 0  9995", "line2": "2 43002  56.5226  69.4117 0006383 330.8717  29.1139  1.86230678 55044"}}, "geometry": {"type": "Point", "coordinates": [-84.17893096035628, -33.962800391927864]}}, {"type": "Feature", "properties": {"norad_id": 43107, "name": "BEIDOU-3 M7 (C27)", "group": "beidou", "lat": 27.36145727101324, "lon": -29.424155884289725, "alt_km": 21518.331214184087, "timestamp": "2025-12-09T07:41:33.473088+00:00", "meta": {"OBJECT_NAME": "BEIDOU-3 M7 (C27)", "OBJECT_ID": "2018-003A", "EPOCH": "2025-12-08T04:41:21.311520", "MEAN_MOTION": 1.86232319, "ECCENTRICITY": 0.00027287, "INCLINATION": 54.5008, "RA_OF_ASC_NODE": 308.973, "ARG_OF_PERICENTER": 69.0594, "MEAN_ANOMALY": 290.9569, "EPHEMERIS_TYPE": 0, "CLASSIFICATION_TYPE": "U", "NORAD_CAT_ID": 43107, "ELEMENT_SET_NO": 999, "REV_AT_EPOCH": 5379, "BSTAR": 0, "MEAN_MOTION_DOT": -7.3e-07, "MEAN_MOTION_DDOT": 0}, "tle": {"line1": "1 43107U 18003A   25342.19538555 -.00000073  00000+0  00000+0 0  9993", "line2": "2 43107  54.5008 308.9730 0002728  69.0594 290.9569  1.86232319 53790"}}, "geometry": {"type": "Point", "coordinates": [-29.424155884289725, 27.36145727101324]}}]}